CCSDS_OEM_VERS = 1.0
CREATION_DATE  = 2017-05-11T11:02:22
ORIGINATOR     = GMAT USER

META_START
OBJECT_NAME          = MOPSSat_alt_35785_km_RAAN_0_087
OBJECT_ID            = SatId
CENTER_NAME          = Earth
REF_FRAME            = EME2000
TIME_SYSTEM          = UTC
START_TIME           = 2017-01-01T00:00:00.000
USEABLE_START_TIME   = 2017-01-01T00:00:00.000
USEABLE_STOP_TIME    = 2017-01-02T00:00:00.000
STOP_TIME            = 2017-01-02T00:00:00.000
INTERPOLATION        = Lagrange
INTERPOLATION_DEGREE = 7 
META_STOP


                                                                                   

2017-01-01T09:46:40.000  -3.593690295258777e+04   2.271936258279693e+04   1.988619223067318e+02  -1.643383548873262e+00  -2.568230176536552e+00  -2.235999015779107e-02
2017-01-01T09:46:50.000  -3.595332746750119e+04   2.269367439187504e+04   1.986382710228795e+02  -1.641519295027622e+00  -2.569407782809665e+00  -2.237026465510203e-02
2017-01-01T09:47:00.000  -3.596973333587303e+04   2.266797443139375e+04   1.984145170506251e+02  -1.639654211572273e+00  -2.570584042728044e+00  -2.238052744045741e-02
2017-01-01T09:47:10.000  -3.598612054936804e+04   2.264226271488679e+04   1.981906605076990e+02  -1.637788299474627e+00  -2.571758955725186e+00  -2.239077850892808e-02
2017-01-01T09:47:20.000  -3.600248909963811e+04   2.261653925593123e+04   1.979667015122090e+02  -1.635921559705176e+00  -2.572932521233644e+00  -2.240101785557668e-02
2017-01-01T09:47:30.000  -3.601883897833736e+04   2.259080406812107e+04   1.977426401824105e+02  -1.634053993235591e+00  -2.574104738686124e+00  -2.241124547546711e-02
2017-01-01T09:47:40.000  -3.603517017712830e+04   2.256505716505808e+04   1.975184766366264e+02  -1.632185601038049e+00  -2.575275607515908e+00  -2.242146136366832e-02
2017-01-01T09:47:50.000  -3.605148268774080e+04   2.253929856026015e+04   1.972942109924492e+02  -1.630316384078579e+00  -2.576445127161092e+00  -2.243166551529118e-02
2017-01-01T09:48:00.000  -3.606777650193235e+04   2.251352826722211e+04   1.970698433672706e+02  -1.628446343321485e+00  -2.577613297061735e+00  -2.244185792546375e-02
2017-01-01T09:48:10.000  -3.608405161148828e+04   2.248774629941586e+04   1.968453738782827e+02  -1.626575479729348e+00  -2.578780116659877e+00  -2.245203858933128e-02
2017-01-01T09:48:20.000  -3.610030800825983e+04   2.246195267022845e+04   1.966208026419389e+02  -1.624703794258539e+00  -2.579945585402266e+00  -2.246220750208011e-02
2017-01-01T09:48:30.000  -3.611654568410651e+04   2.243614739305461e+04   1.963961297747593e+02  -1.622831287865928e+00  -2.581109702736220e+00  -2.247236465890152e-02
2017-01-01T09:48:40.000  -3.613276463089033e+04   2.241033048130614e+04   1.961713553934124e+02  -1.620957961509566e+00  -2.582272468109226e+00  -2.248251005498825e-02
2017-01-01T09:48:50.000  -3.614896484045855e+04   2.238450194843686e+04   1.959464796149332e+02  -1.619083816150505e+00  -2.583433880967692e+00  -2.249264368552362e-02
2017-01-01T09:49:00.000  -3.616514630463214e+04   2.235866180796416e+04   1.957215025569093e+02  -1.617208852754347e+00  -2.584593940756122e+00  -2.250276554567427e-02
2017-01-01T09:49:10.000  -3.618130901525269e+04   2.233281007339264e+04   1.954964243368173e+02  -1.615333072285712e+00  -2.585752646920485e+00  -2.251287563061964e-02
2017-01-01T09:49:20.000  -3.619745296397144e+04   2.230694675855585e+04   1.952712450749979e+02  -1.613456475733030e+00  -2.586909998893083e+00  -2.252297393541988e-02
2017-01-01T09:49:30.000  -3.621357814250549e+04   2.228107187720238e+04   1.950459648910519e+02  -1.611579064078514e+00  -2.588065996110919e+00  -2.253306045517616e-02
2017-01-01T09:49:40.000  -3.622968454254220e+04   2.225518544314968e+04   1.948205839051795e+02  -1.609700838309314e+00  -2.589220638008859e+00  -2.254313518497094e-02
2017-01-01T09:49:50.000  -3.624577215611008e+04   2.222928746968869e+04   1.945951022329972e+02  -1.607821799374324e+00  -2.590373924046190e+00  -2.255319812009976e-02
2017-01-01T09:50:00.000  -3.626184097520867e+04   2.220337797017759e+04   1.943695199907064e+02  -1.605941948227260e+00  -2.591525853680115e+00  -2.256324925583999e-02
2017-01-01T09:50:10.000  -3.627789099189286e+04   2.217745695790740e+04   1.941438372939242e+02  -1.604061285816911e+00  -2.592676426371786e+00  -2.257328858750336e-02
2017-01-01T09:50:20.000  -3.629392219806232e+04   2.215152444643620e+04   1.939180542605922e+02  -1.602179813111388e+00  -2.593825641571206e+00  -2.258331611030435e-02
2017-01-01T09:50:30.000  -3.630993458561859e+04   2.212558044934143e+04   1.936921710088214e+02  -1.600297531080148e+00  -2.594973498728497e+00  -2.259333181945846e-02
2017-01-01T09:50:40.000  -3.632592814646396e+04   2.209962498021926e+04   1.934661876568852e+02  -1.598414440693958e+00  -2.596119997293811e+00  -2.260333571018143e-02
2017-01-01T09:50:50.000  -3.634190287235025e+04   2.207365805293573e+04   1.932401043254065e+02  -1.596530542943100e+00  -2.597265136706503e+00  -2.261332777759472e-02
2017-01-01T09:51:00.000  -3.635785875508354e+04   2.204767968128908e+04   1.930139211344184e+02  -1.594645838812887e+00  -2.598408916409793e+00  -2.262330801685355e-02
2017-01-01T09:51:10.000  -3.637379578644319e+04   2.202168987914257e+04   1.927876382045199e+02  -1.592760329293289e+00  -2.599551335844971e+00  -2.263327642309623e-02
2017-01-01T09:51:20.000  -3.638971395854164e+04   2.199568865983804e+04   1.925612556517699e+02  -1.590874015336399e+00  -2.600692394477185e+00  -2.264323299166924e-02
2017-01-01T09:51:30.000  -3.640561326346445e+04   2.196967603678225e+04   1.923347735927929e+02  -1.588986897898956e+00  -2.601832091769631e+00  -2.265317771790204e-02
2017-01-01T09:51:40.000  -3.642149369335200e+04   2.194365202331446e+04   1.921081921436254e+02  -1.587098977932755e+00  -2.602970427189424e+00  -2.266311059715822e-02
2017-01-01T09:51:50.000  -3.643735524019126e+04   2.191761663304197e+04   1.918815114226376e+02  -1.585210256408978e+00  -2.604107400192660e+00  -2.267303162470520e-02
2017-01-01T09:52:00.000  -3.645319789597113e+04   2.189156987959142e+04   1.916547315483682e+02  -1.583320734300156e+00  -2.605243010235553e+00  -2.268294079581144e-02
2017-01-01T09:52:10.000  -3.646902165268143e+04   2.186551177660823e+04   1.914278526395192e+02  -1.581430412580127e+00  -2.606377256774364e+00  -2.269283810574576e-02
2017-01-01T09:52:20.000  -3.648482650216321e+04   2.183944233800856e+04   1.912008748171502e+02  -1.579539292242314e+00  -2.607510139254678e+00  -2.270272354968379e-02
2017-01-01T09:52:30.000  -3.650061243631139e+04   2.181336157764053e+04   1.909737982017276e+02  -1.577647374275148e+00  -2.608641657125910e+00  -2.271259712283461e-02
2017-01-01T09:52:40.000  -3.651637944699459e+04   2.178726950941738e+04   1.907466229142858e+02  -1.575754659671727e+00  -2.609771809835583e+00  -2.272245882039069e-02
2017-01-01T09:52:50.000  -3.653212752641102e+04   2.176116614672883e+04   1.905193490713001e+02  -1.573861149387122e+00  -2.610900596854818e+00  -2.273230863775049e-02
2017-01-01T09:53:00.000  -3.654785666673254e+04   2.173505150302967e+04   1.902919767898127e+02  -1.571966844381066e+00  -2.612028017652829e+00  -2.274214657029571e-02
2017-01-01T09:53:10.000  -3.656356686018528e+04   2.170892559170687e+04   1.900645061862756e+02  -1.570071745608319e+00  -2.613154071702703e+00  -2.275197261344188e-02
2017-01-01T09:53:20.000  -3.657925809884378e+04   2.168278842641639e+04   1.898369373794820e+02  -1.568175854043100e+00  -2.614278758466639e+00  -2.276178676250948e-02
2017-01-01T09:53:30.000  -3.659493037478459e+04   2.165664002083354e+04   1.896092704883944e+02  -1.566279170660976e+00  -2.615402077406964e+00  -2.277158901282007e-02
2017-01-01T09:53:40.000  -3.661058368008532e+04   2.163048038865240e+04   1.893815056321381e+02  -1.564381696438821e+00  -2.616524027986057e+00  -2.278137935969567e-02
2017-01-01T09:53:50.000  -3.662621800667658e+04   2.160430954383876e+04   1.891536429322043e+02  -1.562483432373163e+00  -2.617644609655744e+00  -2.279115779836620e-02
2017-01-01T09:54:00.000  -3.664183334654236e+04   2.157812750028998e+04   1.889256825094887e+02  -1.560584379455509e+00  -2.618763821871658e+00  -2.280092432409473e-02
2017-01-01T09:54:10.000  -3.665742969163934e+04   2.155193427197133e+04   1.886976244854772e+02  -1.558684538682239e+00  -2.619881664087450e+00  -2.281067893212705e-02
2017-01-01T09:54:20.000  -3.667300703425468e+04   2.152572987231500e+04   1.884694689770155e+02  -1.556783911011012e+00  -2.620998135780447e+00  -2.282042161791549e-02
2017-01-01T09:54:30.000  -3.668856536664708e+04   2.149951431482250e+04   1.882412161015523e+02  -1.554882497404462e+00  -2.622113236425907e+00  -2.283015237689438e-02
2017-01-01T09:54:40.000  -3.670410468113975e+04   2.147328761290928e+04   1.880128659757868e+02  -1.552980298818926e+00  -2.623226965503697e+00  -2.283987120453813e-02
2017-01-01T09:54:50.000  -3.671962496987000e+04   2.144704978032222e+04   1.877844187193040e+02  -1.551077316234724e+00  -2.624339322480338e+00  -2.284957809620477e-02
2017-01-01T09:55:00.000  -3.673512622499617e+04   2.142080083079527e+04   1.875558744515763e+02  -1.549173550631189e+00  -2.625450306823840e+00  -2.285927304726526e-02
2017-01-01T09:55:10.000  -3.675060843865141e+04   2.139454077812625e+04   1.873272332926323e+02  -1.547269002992230e+00  -2.626559918000381e+00  -2.286895605307456e-02
2017-01-01T09:55:20.000  -3.676607160295745e+04   2.136826963615675e+04   1.870984953628816e+02  -1.545363674304872e+00  -2.627668155475309e+00  -2.287862710898032e-02
2017-01-01T09:55:30.000  -3.678151571003883e+04   2.134198741874520e+04   1.868696607828801e+02  -1.543457565557312e+00  -2.628775018714144e+00  -2.288828621033176e-02
2017-01-01T09:55:40.000  -3.679694075202868e+04   2.131569413975755e+04   1.866407296732497e+02  -1.541550677738237e+00  -2.629880507183016e+00  -2.289793335248327e-02
